IRIDIUM 149             
1 43250U 18030B   25201.90624315  .00000030  00000+0  37989-5 0  9999
2 43250  86.3931  68.8728 0002048  88.1021 272.0409 14.34217530382679
IRIDIUM 157             
1 43251U 18030C   25201.92527138  .00000047  00000+0  97986-5 0  9998
2 43251  86.3933  68.9108 0002377  87.9757 272.1711 14.34217736382656
IRIDIUM 140             
1 43252U 18030D   25201.87452984  .00000006  00000+0 -50182-5 0  9992
2 43252  86.3929  68.9453 0001846  84.1079 276.0327 14.34217470382708
IRIDIUM 145             
1 43253U 18030E   25201.86184434  .00000035  00000+0  55911-5 0  9990
2 43253  86.3933  68.9237 0001777  92.2891 267.8508 14.34217424382639
IRIDIUM 146             
1 43254U 18030F   25201.91258489  .00000024  00000+0  13472-5 0  9993
2 43254  86.3931  68.9157 0001809  91.1812 268.9591 14.34217634382655
IRIDIUM 148             
1 43255U 18030G   25202.36925393 -.00000043  00000+0 -22576-4 0  9996
2 43255  86.3932  68.7625 0002083  91.6353 268.5081 14.34218550382765
IRIDIUM 142             
1 43256U 18030H   25201.91892755  .00000026  00000+0  22770-5 0  9998
2 43256  86.3931  68.8522 0001766  96.1990 263.9407 14.34217543382656
IRIDIUM 150             
1 43257U 18030J   25201.88721483  .00000048  00000+0  99265-5 0  9991
2 43257  86.3933  68.9709 0001898  88.0934 272.0479 14.34217747382679
IRIDIUM 143             
1 43258U 18030K   25201.86818691  .00000010  00000+0 -34756-5 0  9992
2 43258  86.3933  69.0585 0001600  93.6149 266.5230 14.34217395382600
GAOFEN-1 02             
1 43259U 18031A   25202.51304080  .00000653  00000+0  10044-3 0  9993
2 43259  97.7704 262.2610 0005106 359.0812   1.0388 14.76609135393904
GAOFEN-1 03             
1 43260U 18031B   25202.42347170  .00000606  00000+0  93832-4 0  9997
2 43260  97.7698 262.0658 0006321  32.6229 327.5371 14.76596074393886
GAOFEN-1 04             
1 43262U 18031D   25202.46687528  .00000612  00000+0  94562-4 0  9995
2 43262  97.7707 262.2590 0002987  45.9869 314.1587 14.76603034393883
SUPERBIRD-B3            
1 43271U 18033A   25201.84280779 -.00000093  00000+0  00000+0 0  9998
2 43271   0.0174  16.7553 0001468 141.7190 245.7741  1.00271124 26736
HYLAS 4                 
1 43272U 18033B   25201.89350481 -.00000235  00000+0  00000+0 0  9990
2 43272   0.0646 260.0896 0000821 258.6982  68.2021  1.00269171 26743
YAOGAN-31 01A           
1 43275U 18034A   25202.46484683 -.00000037  00000+0  75488-4 0  9997
2 43275  63.3941 222.0651 0245812   6.3512 354.0534 13.45413199357713
YAOGAN-31 01B           
1 43276U 18034B   25202.46517202 -.00000031  00000+0  84175-4 0  9999
2 43276  63.3943 222.0591 0245823   6.3151 354.0877 13.45410440357727
YAOGAN-31 01C           
1 43277U 18034C   25202.39062793 -.00000032  00000+0  82372-4 0  9990
2 43277  63.3953 221.5727 0245985   6.0993 354.2934 13.45411527357738
WEINA 1B                
1 43279U 18034E   25202.45948711 -.00000040  00000+0  71428-4 0  9991
2 43279  63.3947 222.5315 0245771   6.8616 353.5674 13.45335502357719
IRNSS-1I                
1 43286U 18035A   25197.74243921  .00000077  00000+0  00000+0 0  9998
2 43286  28.7951  79.4255 0018190 177.0149   0.6821  1.00272718 26718
USA 283                 
1 43339U 18036A   25200.58967256 -.00000314  00000+0  00000+0 0  9994
2 43339   0.0161  62.0277 0000379 165.6434  56.3367  1.00267936 21955
COSMOS 2526             
1 43432U 18037A   25202.40788957 -.00000348  00000+0  00000+0 0  9998
2 43432   0.0280 101.6784 0000949 125.4923 347.1233  1.00264302 26642
TESS                    
1 43435U 18038A   25206.79310809 -.00002333  00000+0  00000+0 0  9991
2 43435  56.2540  48.6741 4645845  92.2651   5.8154  0.07761537  1318
SENTINEL-3B             
1 43437U 18039A   25202.10648699  .00000078  00000+0  50109-4 0  9999
2 43437  98.6286 269.3557 0001491 118.0855 242.0476 14.26738918376912
ZHUHAI-1 OVS-02         
1 43440U 18040B   25202.51045515  .00005585  00000+0  26418-3 0  9991
2 43440  97.0709 234.9369 0003945  17.9163 342.2211 15.19735110402401
ZHUHAI-1 OHS-02         
1 43441U 18040C   25202.49203098  .00007763  00000+0  29353-3 0  9992
2 43441  97.0766 239.9080 0011642 346.2773  13.8148 15.27159720402460
USA 285                 
1 43445U 18036E   25200.91515892 -.00000209  00000+0  00000+0 0  9997
2 43445   6.3041  70.9379 0011084 156.1658 102.5292  1.02115113 23547
USA 286                 
1 43446U 18036F   25201.45899201 -.00000066  00000+0  00000+0 0  9998
2 43446   6.3030  70.8987 0010797 154.0064  11.4869  1.02119369 23532
APSTAR-6C               
1 43450U 18041A   25201.93886578 -.00000319  00000+0  00000+0 0  9996
2 43450   0.0252 338.6662 0001349 273.5021 158.7852  1.00269350 26525
GAOFEN-5 01             
1 43461U 18043A   25201.86567518  .00000304  00000+0  73082-4 0  9990
2 43461  98.4079 162.5285 0002630  51.9974 308.1463 14.60191402383335
BANGABANDHUSAT-1        
1 43463U 18044A   25201.93447365 -.00000363  00000+0  00000+0 0  9999
2 43463   0.0315 106.5990 0002361  35.0148 252.8401  1.00271166 26389
GRACE-FO 1              
1 43476U 18047A   25201.88082224  .00002833  00000+0  82792-4 0  9995
2 43476  88.9766 243.6962 0009975 335.9582  24.1205 15.34867310398920
GRACE-FO 2              
1 43477U 18047B   25201.88115256  .00002883  00000+0  84284-4 0  9991
2 43477  88.9766 243.6958 0009975 335.8358  24.2426 15.34865817398922
IRIDIUM 161             
1 43478U 18047C   25201.49026110  .00000314  00000+0  87386-4 0  9992
2 43478  86.4473 227.0187 0002532  87.9827 272.1664 14.43279464377290
IRIDIUM 152             
1 43479U 18047D   25202.11997894 -.00000001  00000+0 -74873-5 0  9992
2 43479  86.3952 226.6162 0002252  87.8788 272.2666 14.34217698375049
IRIDIUM 147             
1 43480U 18047E   25201.77748030  .00000051  00000+0  11226-4 0  9996
2 43480  86.3950 226.7587 0002442  93.1400 267.0075 14.34217768374989
IRIDIUM 110             
1 43481U 18047F   25201.50474810  .00000094  00000+0  26596-4 0  9993
2 43481  86.3952 226.9559 0002750  86.8676 273.2835 14.34217777374937
IRIDIUM 162             
1 43482U 18047G   25201.48396025  .00000232  00000+0  63036-4 0  9996
2 43482  86.4472 226.9164 0002540  84.3029 275.8462 14.43280249377289
GAOFEN-6                
1 43484U 18048A   25202.44588606  .00000538  00000+0  83987-4 0  9990
2 43484  97.8214 271.3865 0013294 157.6319 202.5473 14.76606831384582
LUOJIA-1 01             
1 43485U 18048B   25202.50811172  .00001695  00000+0  20315-3 0  9995
2 43485  97.8420 280.8797 0010612 123.4751 236.7480 14.85355447385079
SES-12                  
1 43488U 18049A   25202.50222110 -.00000272  00000+0  00000+0 0  9993
2 43488   0.0110  19.5161 0001037 220.6430 335.1331  1.00268429 26090
FENGYUN 2H              
1 43491U 18050A   25202.42768373 -.00000133  00000+0  00000+0 0  9992
2 43491   2.1763  83.0571 0002161 123.9670 325.5605  1.00273916 26197
COSMOS 2527 [GLONASS-M] 
1 43508U 18053A   25202.25570247 -.00000029  00000+0  00000+0 0  9990
2 43508  65.3916  84.9610 0006809 228.9075 131.0956  2.13102158 55228
PAKTES 1A               
1 43529U 18056A   25202.43751780  .00002053  00000+0  18372-3 0  9992
2 43529  98.0824 341.3147 0022908 127.8127 232.5172 14.96850805382403
PRSS 1                  
1 43530U 18056B   25202.46798895  .00000683  00000+0  94477-4 0  9993
2 43530  97.8240 273.8931 0001531  82.9627 277.1760 14.81149364379464
BEIDOU-2 IGSO-7         
1 43539U 18057A   25201.83100179 -.00000096  00000+0  00000+0 0  9998
2 43539  55.1702 165.9256 0089813 236.5030 304.6178  1.00246435 25807
TELSTAR 19V             
1 43562U 18059A   25201.54293756 -.00000279  00000+0  00000+0 0  9991
2 43562   0.0374 197.1933 0002890 296.4770 297.3346  1.00270130 25840
GSAT0221 (GALILEO 25)   
1 43564U 18060A   25201.05795238 -.00000091  00000+0  00000+0 0  9995
2 43564  57.2639 350.7489 0002604 277.7368  82.2307  1.70475949 43504
GSAT0222 (GALILEO 26)   
1 43565U 18060B   25201.27707758 -.00000092  00000+0  00000+0 0  9991
2 43565  57.2676 350.7458 0002827 228.5538 131.4183  1.70475704 43555
GSAT0219 (GALILEO 23)   
1 43566U 18060C   25200.32523024 -.00000087  00000+0  00000+0 0  9993
2 43566  57.2668 350.7730 0001732 291.8391  68.1414  1.70475886 43514
GSAT0220 (GALILEO 24)   
1 43567U 18060D   25201.13265740 -.00000091  00000+0  00000+0 0  9997
2 43567  57.2663 350.7515 0002079 279.8821  80.0912  1.70475635 43518
IRIDIUM 160             
1 43569U 18061A   25201.93896369  .00000042  00000+0  78026-5 0  9999
2 43569  86.3989 195.1858 0002514  86.1694 273.9789 14.34217793365892
IRIDIUM 166             
1 43570U 18061B   25202.03410255  .00000062  00000+0  14941-4 0  9996
2 43570  86.3989 195.1010 0002062  92.4743 267.6689 14.34217872365939
IRIDIUM 158             
1 43571U 18061C   25201.93262048 -.00000002  00000+0 -77336-5 0  9994
2 43571  86.3993 195.1535 0002145  83.6713 276.4727 14.34217494365883
IRIDIUM 165             
1 43572U 18061D   25201.95799619  .00000135  00000+0  41265-4 0  9992
2 43572  86.3990 195.1826 0002248  91.9326 268.2127 14.34219244365912
IRIDIUM 155             
1 43573U 18061E   25201.91993559  .00000047  00000+0  98695-5 0  9990
2 43573  86.3984 195.0842 0002083  83.4169 276.7264 14.34217854365877
IRIDIUM 154             
1 43574U 18061F   25201.90090835  .00000065  00000+0  16017-4 0  9992
2 43574  86.3989 195.2092 0002282  88.5458 271.5999 14.34218011365920
IRIDIUM 163             
1 43575U 18061G   25201.95164804  .00000121  00000+0  36097-4 0  9999
2 43575  86.3986 195.1138 0002352  84.5653 275.5811 14.34218534365904
IRIDIUM 156             
1 43576U 18061H   25201.92627794  .00000051  00000+0  11031-4 0  9992
2 43576  86.3986 195.1314 0001944  86.0711 274.0707 14.34217891365890
IRIDIUM 164             
1 43577U 18061J   25201.69794552  .00000021  00000+0  56728-6 0  9995
2 43577  86.3992 195.2618 0002133  94.9349 265.2090 14.34217535365906
